{"type": "FeatureCollection", "features": [{"type": "Feature", "properties": {"norad_id": 50032, "name": "COSMOS 1408 DEB", "group": "cosmos-1408-debris", "lat": -82.11406864513496, "lon": -65.9430686125365, "alt_km": 440.5948495052826, "timestamp": "2025-12-27T09:28:56.746881+00:00", "meta": {"OBJECT_NAME": "COSMOS 1408 DEB", "OBJECT_ID": "1982-092RU", "EPOCH": "2025-12-27T03:40:10.219584", "MEAN_MOTION": 15.4583822, "ECCENTRICITY": 0.0016709, "INCLINATION": 82.5632, "RA_OF_ASC_NODE": 43.7342, "ARG_OF_PERICENTER": 155.8656, "MEAN_ANOMALY": 204.338, "EPHEMERIS_TYPE": 0, "CLASSIFICATION_TYPE": "U", "NORAD_CAT_ID": 50032, "ELEMENT_SET_NO": 999, "REV_AT_EPOCH": 22826, "BSTAR": 0.00011626, "MEAN_MOTION_DOT": 5.708e-05, "MEAN_MOTION_DDOT": 0}, "tle": {"line1": "1 50032U 82092RU  25361.15289606  .00005708  00000+0  11626-3 0  9993", "line2": "2 50032  82.5632  43.7342 0016709 155.8656 204.3380 15.45838220228268"}}, "geometry": {"type": "Point", "coordinates": [-65.9430686125365, -82.11406864513496]}}, {"type": "Feature", "properties": {"norad_id": 50058, "name": "COSMOS 1408 DEB", "group": "cosmos-1408-debris", "lat": 17.50401314045036, "lon": 56.337682597563976, "alt_km": 364.70846508052455, "timestamp": "2025-12-27T09:28:56.746901+00:00", "meta": {"OBJECT_NAME": "COSMOS 1408 DEB", "OBJECT_ID": "1982-092SW", "EPOCH": "2025-12-27T03:16:08.809248", "MEAN_MOTION": 15.64984999, "ECCENTRICITY": 0.0015749, "INCLINATION": 82.6117, "RA_OF_ASC_NODE": 54.2636, "ARG_OF_PERICENTER": 49.652, "MEAN_ANOMALY": 310.6112, "EPHEMERIS_TYPE": 0, "CLASSIFICATION_TYPE": "U", "NORAD_CAT_ID": 50058, "ELEMENT_SET_NO": 999, "REV_AT_EPOCH": 23029, "BSTAR": 0.00035245, "MEAN_MOTION_DOT": 0.00034873, "MEAN_MOTION_DDOT": 0}, "tle": {"line1": "1 50058U 82092SW  25361.13621307  .00034873  00000+0  35245-3 0  9995", "line2": "2 50058  82.6117  54.2636 0015749  49.6520 310.6112 15.64984999230297"}}, "geometry": {"type": "Point", "coordinates": [56.337682597563976, 17.50401314045036]}}, {"type": "Feature", "properties": {"norad_id": 50404, "name": "COSMOS 1408 DEB", "group": "cosmos-1408-debris", "lat": 33.22145465865758, "lon": -154.84728231937848, "alt_km": 561.3708676702909, "timestamp": "2025-12-27T09:28:56.746915+00:00", "meta": {"OBJECT_NAME": "COSMOS 1408 DEB", "OBJECT_ID": "1982-092ADS", "EPOCH": "2025-12-26T23:49:41.077056", "MEAN_MOTION": 15.16159411, "ECCENTRICITY": 0.016566, "INCLINATION": 82.2019, "RA_OF_ASC_NODE": 200.4168, "ARG_OF_PERICENTER": 149.7673, "MEAN_ANOMALY": 211.3249, "EPHEMERIS_TYPE": 0, "CLASSIFICATION_TYPE": "U", "NORAD_CAT_ID": 50404, "ELEMENT_SET_NO": 999, "REV_AT_EPOCH": 21409, "BSTAR": 0.0039409, "MEAN_MOTION_DOT": 0.00109479, "MEAN_MOTION_DDOT": 0}, "tle": {"line1": "1 50404U 82092ADS 25360.99283654  .00109479  00000+0  39409-2 0  9992", "line2": "2 50404  82.2019 200.4168 0165660 149.7673 211.3249 15.16159411214091"}}, "geometry": {"type": "Point", "coordinates": [-154.84728231937848, 33.22145465865758]}}, {"type": "Feature", "properties": {"norad_id": 50621, "name": "COSMOS 1408 DEB", "group": "cosmos-1408-debris", "lat": -1.6213578381979712, "lon": 58.70306425563852, "alt_km": 402.4100014139294, "timestamp": "2025-12-27T09:28:56.746926+00:00", "meta": {"OBJECT_NAME": "COSMOS 1408 DEB", "OBJECT_ID": "1982-092ALR", "EPOCH": "2025-12-27T03:19:16.705056", "MEAN_MOTION": 15.57407549, "ECCENTRICITY": 0.0029152, "INCLINATION": 82.5695, "RA_OF_ASC_NODE": 59.1823, "ARG_OF_PERICENTER": 101.1133, "MEAN_ANOMALY": 259.3402, "EPHEMERIS_TYPE": 0, "CLASSIFICATION_TYPE": "U", "NORAD_CAT_ID": 50621, "ELEMENT_SET_NO": 999, "REV_AT_EPOCH": 22474, "BSTAR": 0.00039055, "MEAN_MOTION_DOT": 0.00029272, "MEAN_MOTION_DDOT": 0}, "tle": {"line1": "1 50621U 82092ALR 25361.13838779  .00029272  00000+0  39055-3 0  9994", "line2": "2 50621  82.5695  59.1823 0029152 101.1133 259.3402 15.57407549224749"}}, "geometry": {"type": "Point", "coordinates": [58.70306425563852, -1.6213578381979712]}}]}